start=new Date('2023-03-04T00:00:00.000Z').valueOf();
sats=[{"COUNTRY_CODE":"US","MEAN_ANOMALY":"240.4025","RA_OF_ASC_NODE":"285.3929","TLE_LINE2":"2 51858  53.2147 285.3929 0000815 119.7048 240.4025 15.08862957 56686","RCS_SIZE":"LARGE","OBJECT_NAME":"STARLINK-3563","FILE":"3850400","REV_AT_EPOCH":"5668","OBJECT_TYPE":"PAYLOAD","TIME_SYSTEM":"UTC","CLASSIFICATION_TYPE":"U","MEAN_MOTION_DDOT":"0.0000000000000","ECCENTRICITY":"0.00008150","TLE_LINE1":"1 51858U 22022G   23062.86813122  .00008663  00000-0  56138-3 0  9998","INCLINATION":"53.2147","DECAY_DATE":null,"SEMIMAJOR_AXIS":"6917.810","NORAD_CAT_ID":"51858","GP_ID":"227433793","EPOCH":"2023-03-03T20:50:06.537408","PERIAPSIS":"539.111","APOAPSIS":"540.239","PERIOD":"95.436","LAUNCH_DATE":"2022-03-03","REF_FRAME":"TEME","EPHEMERIS_TYPE":"0","SITE":"AFETR","CENTER_NAME":"EARTH","OBJECT_ID":"2022-022G","MEAN_ELEMENT_THEORY":"SGP4","BSTAR":"0.00056138000000","MEAN_MOTION_DOT":"0.00008663","MEAN_MOTION":"15.08862957","ELEMENT_SET_NO":"999","ARG_OF_PERICENTER":"119.7048"},{"LAUNCH_DATE":"2022-03-03","APOAPSIS":"540.642","PERIOD":"95.436","EPHEMERIS_TYPE":"0","REF_FRAME":"TEME","GP_ID":"227434043","EPOCH":"2023-03-03T21:12:37.995840","SEMIMAJOR_AXIS":"6917.815","NORAD_CAT_ID":"51859","PERIAPSIS":"538.718","MEAN_MOTION":"15.08861385","ARG_OF_PERICENTER":"77.5659","ELEMENT_SET_NO":"999","SITE":"AFETR","BSTAR":"0.00107810000000","MEAN_ELEMENT_THEORY":"SGP4","MEAN_MOTION_DOT":"0.00016922","CENTER_NAME":"EARTH","OBJECT_ID":"2022-022H","OBJECT_NAME":"STARLINK-3560","FILE":"3850400","RCS_SIZE":"LARGE","TLE_LINE2":"2 51859  53.2157 275.3224 0001391  77.5659 282.5489 15.08861385 56825","REV_AT_EPOCH":"5682","MEAN_ANOMALY":"282.5489","RA_OF_ASC_NODE":"275.3224","COUNTRY_CODE":"US","INCLINATION":"53.2157","TLE_LINE1":"1 51859U 22022H   23062.88377310  .00016922  00000-0  10781-2 0  9995","DECAY_DATE":null,"ECCENTRICITY":"0.00013910","OBJECT_TYPE":"PAYLOAD","TIME_SYSTEM":"UTC","CLASSIFICATION_TYPE":"U","MEAN_MOTION_DDOT":"0.0000000000000"},{"PERIAPSIS":"538.694","NORAD_CAT_ID":"51860","SEMIMAJOR_AXIS":"6917.802","EPOCH":"2023-03-03T21:23:13.695936","GP_ID":"227434794","REF_FRAME":"TEME","EPHEMERIS_TYPE":"0","PERIOD":"95.436","APOAPSIS":"540.641","LAUNCH_DATE":"2022-03-03","OBJECT_ID":"2022-022J","CENTER_NAME":"EARTH","MEAN_MOTION_DOT":"0.00009207","MEAN_ELEMENT_THEORY":"SGP4","BSTAR":"0.00059537000000","SITE":"AFETR","ELEMENT_SET_NO":"999","ARG_OF_PERICENTER":"99.5165","MEAN_MOTION":"15.08865487","COUNTRY_CODE":"US","RA_OF_ASC_NODE":"275.2890","MEAN_ANOMALY":"260.5986","REV_AT_EPOCH":"5678","TLE_LINE2":"2 51860  53.2155 275.2890 0001407  99.5165 260.5986 15.08865487 56787","RCS_SIZE":"LARGE","OBJECT_NAME":"STARLINK-3559","FILE":"3850400","MEAN_MOTION_DDOT":"0.0000000000000","CLASSIFICATION_TYPE":"U","TIME_SYSTEM":"UTC","OBJECT_TYPE":"PAYLOAD","ECCENTRICITY":"0.00014070","DECAY_DATE":null,"TLE_LINE1":"1 51860U 22022J   23062.89113074  .00009207  00000-0  59537-3 0  9994","INCLINATION":"53.2155"},{"DECAY_DATE":null,"TLE_LINE1":"1 51861U 22022K   23062.87640869  .00012880  00000-0  82517-3 0  9995","INCLINATION":"53.2172","ECCENTRICITY":"0.00009210","MEAN_MOTION_DDOT":"0.0000000000000","CLASSIFICATION_TYPE":"U","TIME_SYSTEM":"UTC","OBJECT_TYPE":"PAYLOAD","REV_AT_EPOCH":"5669","FILE":"3850400","OBJECT_NAME":"STARLINK-3562","TLE_LINE2":"2 51861  53.2172 275.3478 0000921  61.0978 299.0106 15.08871612 56694","RCS_SIZE":"LARGE","RA_OF_ASC_NODE":"275.3478","MEAN_ANOMALY":"299.0106","COUNTRY_CODE":"US","ARG_OF_PERICENTER":"61.0978","ELEMENT_SET_NO":"999","MEAN_MOTION":"15.08871612","MEAN_MOTION_DOT":"0.00012880","MEAN_ELEMENT_THEORY":"SGP4","BSTAR":"0.00082517000000","OBJECT_ID":"2022-022K","CENTER_NAME":"EARTH","SITE":"AFETR","EPHEMERIS_TYPE":"0","REF_FRAME":"TEME","LAUNCH_DATE":"2022-03-03","APOAPSIS":"540.286","PERIOD":"95.436","PERIAPSIS":"539.012","EPOCH":"2023-03-03T21:02:01.710816","GP_ID":"227435544","NORAD_CAT_ID":"51861","SEMIMAJOR_AXIS":"6917.784"},{"TLE_LINE2":"2 51862  53.2157 275.3089 0000996 109.4735 250.6365 15.08852871 56838","RCS_SIZE":"LARGE","OBJECT_NAME":"STARLINK-3508","FILE":"3850400","REV_AT_EPOCH":"5683","COUNTRY_CODE":"US","RA_OF_ASC_NODE":"275.3089","MEAN_ANOMALY":"250.6365","ECCENTRICITY":"0.00009960","DECAY_DATE":null,"INCLINATION":"53.2157","TLE_LINE1":"1 51862U 22022L   23062.88745370 -.00001230  00000-0 -59196-4 0  9997","TIME_SYSTEM":"UTC","OBJECT_TYPE":"PAYLOAD","MEAN_MOTION_DDOT":"0.0000000000000","CLASSIFICATION_TYPE":"U","PERIOD":"95.437","APOAPSIS":"540.395","LAUNCH_DATE":"2022-03-03","REF_FRAME":"TEME","EPHEMERIS_TYPE":"0","NORAD_CAT_ID":"51862","SEMIMAJOR_AXIS":"6917.841","EPOCH":"2023-03-03T21:17:55.999680","GP_ID":"227434293","PERIAPSIS":"539.017","MEAN_MOTION":"15.08852871","ELEMENT_SET_NO":"999","ARG_OF_PERICENTER":"109.4735","SITE":"AFETR","OBJECT_ID":"2022-022L","CENTER_NAME":"EARTH","MEAN_MOTION_DOT":"-0.00001230","BSTAR":"-0.00005919600000","MEAN_ELEMENT_THEORY":"SGP4"},{"LAUNCH_DATE":"2022-03-03","PERIOD":"95.436","APOAPSIS":"540.702","EPHEMERIS_TYPE":"0","REF_FRAME":"TEME","EPOCH":"2023-03-03T20:51:25.876800","GP_ID":"227434542","NORAD_CAT_ID":"51863","SEMIMAJOR_AXIS":"6917.817","PERIAPSIS":"538.662","MEAN_MOTION":"15.08860701","ARG_OF_PERICENTER":"74.3933","ELEMENT_SET_NO":"999","SITE":"AFETR","MEAN_MOTION_DOT":"0.00007178","MEAN_ELEMENT_THEORY":"SGP4","BSTAR":"0.00046834000000","OBJECT_ID":"2022-022M","CENTER_NAME":"EARTH","OBJECT_NAME":"STARLINK-3555","FILE":"3850400","TLE_LINE2":"2 51863  53.2141 275.3875 0001474  74.3933 285.7222 15.08860701 56772","RCS_SIZE":"LARGE","REV_AT_EPOCH":"5677","RA_OF_ASC_NODE":"275.3875","MEAN_ANOMALY":"285.7222","COUNTRY_CODE":"US","DECAY_DATE":null,"TLE_LINE1":"1 51863U 22022M   23062.86904950  .00007178  00000-0  46834-3 0  9996","INCLINATION":"53.2141","ECCENTRICITY":"0.00014740","TIME_SYSTEM":"UTC","OBJECT_TYPE":"PAYLOAD","MEAN_MOTION_DDOT":"0.0000000000000","CLASSIFICATION_TYPE":"U"},{"GP_ID":"227435294","EPOCH":"2023-03-03T21:07:20.112096","SEMIMAJOR_AXIS":"6917.826","NORAD_CAT_ID":"51864","PERIAPSIS":"539.038","LAUNCH_DATE":"2022-03-03","PERIOD":"95.436","APOAPSIS":"540.344","EPHEMERIS_TYPE":"0","REF_FRAME":"TEME","SITE":"AFETR","BSTAR":"0.00081986000000","MEAN_ELEMENT_THEORY":"SGP4","MEAN_MOTION_DOT":"0.00012791","CENTER_NAME":"EARTH","OBJECT_ID":"2022-022N","MEAN_MOTION":"15.08857923","ARG_OF_PERICENTER":"81.6800","ELEMENT_SET_NO":"999","MEAN_ANOMALY":"278.4300","RA_OF_ASC_NODE":"275.3413","COUNTRY_CODE":"US","OBJECT_NAME":"STARLINK-3548","FILE":"3850400","RCS_SIZE":"LARGE","TLE_LINE2":"2 51864  53.2142 275.3413 0000944  81.6800 278.4300 15.08857923 56821","REV_AT_EPOCH":"5682","OBJECT_TYPE":"PAYLOAD","TIME_SYSTEM":"UTC","CLASSIFICATION_TYPE":"U","MEAN_MOTION_DDOT":"0.0000000000000","TLE_LINE1":"1 51864U 22022N   23062.88009389  .00012791  00000-0  81986-3 0  9995","INCLINATION":"53.2142","DECAY_DATE":null,"ECCENTRICITY":"0.00009440"},{"RA_OF_ASC_NODE":"275.4199","MEAN_ANOMALY":"281.7781","COUNTRY_CODE":"US","OBJECT_NAME":"STARLINK-3503","FILE":"3850400","TLE_LINE2":"2 51865  53.2141 275.4199 0001640  78.3395 281.7781 15.08785490 56772","RCS_SIZE":"LARGE","REV_AT_EPOCH":"5677","TIME_SYSTEM":"UTC","OBJECT_TYPE":"PAYLOAD","MEAN_MOTION_DDOT":"0.0000000000000","CLASSIFICATION_TYPE":"U","DECAY_DATE":null,"INCLINATION":"53.2141","TLE_LINE1":"1 51865U 22022P   23062.86171578 -.00025845  00000-0 -16140-2 0  9999","ECCENTRICITY":"0.00016400","EPOCH":"2023-03-03T20:40:52.243392","GP_ID":"227435045","NORAD_CAT_ID":"51865","SEMIMAJOR_AXIS":"6918.047","PERIAPSIS":"538.777","LAUNCH_DATE":"2022-03-03","APOAPSIS":"541.047","PERIOD":"95.441","EPHEMERIS_TYPE":"0","REF_FRAME":"TEME","SITE":"AFETR","MEAN_MOTION_DOT":"-0.00025845","MEAN_ELEMENT_THEORY":"SGP4","BSTAR":"-0.00161400000000","OBJECT_ID":"2022-022P","CENTER_NAME":"EARTH","MEAN_MOTION":"15.08785490","ARG_OF_PERICENTER":"78.3395","ELEMENT_SET_NO":"999"},{"COUNTRY_CODE":"US","RA_OF_ASC_NODE":"275.3706","MEAN_ANOMALY":"275.5005","REV_AT_EPOCH":"5677","TLE_LINE2":"2 51866  53.2154 275.3706 0001205  84.6124 275.5005 15.08867675 56773","RCS_SIZE":"LARGE","OBJECT_NAME":"STARLINK-3553","FILE":"3850400","MEAN_MOTION_DDOT":"0.0000000000000","CLASSIFICATION_TYPE":"U","TIME_SYSTEM":"UTC","OBJECT_TYPE":"PAYLOAD","ECCENTRICITY":"0.00012050","DECAY_DATE":null,"TLE_LINE1":"1 51866U 22022Q   23062.87273042  .00017829  00000-0  11346-2 0  9994","INCLINATION":"53.2154","PERIAPSIS":"538.827","NORAD_CAT_ID":"51866","SEMIMAJOR_AXIS":"6917.796","EPOCH":"2023-03-03T20:56:43.908288","GP_ID":"227433794","REF_FRAME":"TEME","EPHEMERIS_TYPE":"0","APOAPSIS":"540.494","PERIOD":"95.436","LAUNCH_DATE":"2022-03-03","OBJECT_ID":"2022-022Q","CENTER_NAME":"EARTH","MEAN_MOTION_DOT":"0.00017829","BSTAR":"0.00113460000000","MEAN_ELEMENT_THEORY":"SGP4","SITE":"AFETR","ELEMENT_SET_NO":"999","ARG_OF_PERICENTER":"84.6124","MEAN_MOTION":"15.08867675"},{"LAUNCH_DATE":"2022-03-03","PERIOD":"95.435","APOAPSIS":"540.430","EPHEMERIS_TYPE":"0","REF_FRAME":"TEME","EPOCH":"2023-03-03T20:35:32.146944","GP_ID":"227434044","NORAD_CAT_ID":"51867","SEMIMAJOR_AXIS":"6917.768","PERIAPSIS":"538.836","MEAN_MOTION":"15.08876699","ARG_OF_PERICENTER":"90.9892","ELEMENT_SET_NO":"999","SITE":"AFETR","MEAN_MOTION_DOT":"0.00015053","BSTAR":"0.00096092000000","MEAN_ELEMENT_THEORY":"SGP4","OBJECT_ID":"2022-022R","CENTER_NAME":"EARTH","OBJECT_NAME":"STARLINK-3590","FILE":"3850400","RCS_SIZE":"MEDIUM","TLE_LINE2":"2 51867  53.2147 275.4319 0001152  90.9892 269.1232 15.08876699 56777","REV_AT_EPOCH":"5677","RA_OF_ASC_NODE":"275.4319","MEAN_ANOMALY":"269.1232","COUNTRY_CODE":"US","DECAY_DATE":null,"TLE_LINE1":"1 51867U 22022R   23062.85801096  .00015053  00000-0  96092-3 0  9998","INCLINATION":"53.2147","ECCENTRICITY":"0.00011520","TIME_SYSTEM":"UTC","OBJECT_TYPE":"PAYLOAD","MEAN_MOTION_DDOT":"0.0000000000000","CLASSIFICATION_TYPE":"U"}];
